EUTELSAT 16A            
1 37836U 11057A   17346.33729852  .00000099  00000-0  00000+0 0  9998
2 37836   0.0727  31.3444 0005219 239.7658 307.5494  1.00273864 22615
